[{"OBJECT_NAME":"STARLINK-4160","OBJECT_ID":"2022-076AW","EPOCH":"2026-03-09T08:10:38.791200","MEAN_MOTION":15.08838552,"ECCENTRICITY":0.00013735,"INCLINATION":53.2171,"RA_OF_ASC_NODE":85.8814,"ARG_OF_PERICENTER":83.5258,"MEAN_ANOMALY":276.5891,"EPHEMERIS_TYPE":0,"CLASSIFICATION_TYPE":"U","NORAD_CAT_ID":53030,"ELEMENT_SET_NO":999,"REV_AT_EPOCH":20293,"BSTAR":-0.00010985404,"MEAN_MOTION_DOT":-2.036e-5,"MEAN_MOTION_DDOT":0},{"OBJECT_NAME":"LEMUR-2-MARHISYAM","OBJECT_ID":"2024-149BW","EPOCH":"2026-03-09T17:46:07.876416","MEAN_MOTION":15.0901552,"ECCENTRICITY":0.00035778,"INCLINATION":97.6912,"RA_OF_ASC_NODE":151.2662,"ARG_OF_PERICENTER":107.3271,"MEAN_ANOMALY":252.8349,"EPHEMERIS_TYPE":0,"CLASSIFICATION_TYPE":"U","NORAD_CAT_ID":60536,"ELEMENT_SET_NO":999,"REV_AT_EPOCH":8547,"BSTAR":0.00082973442,"MEAN_MOTION_DOT":0.00013075,"MEAN_MOTION_DDOT":0}]
