STARLINK-4160           
1 53030U 22076AW  26068.34072675 -.00002036  00000+0 -10985-3 0  9992
2 53030  53.2171  85.8814 0001373  83.5258 276.5891 15.08838552202930
LEMUR-2-MARHISYAM       
1 60536U 24149BW  26068.74036894  .00013075  00000+0  82973-3 0  9990
2 60536  97.6912 151.2662 0003578 107.3271 252.8349 15.09015520 85478
